COSMOS 2433 (720)       
1 32275U 07052A   24216.61402772 -.00000093  00000+0  00000+0 0  9998
2 32275  65.9174 338.8077 0003261 211.0501 148.9331  2.13104194130559
COSMOS 2432 (719)       
1 32276U 07052B   24216.74476787 -.00000093  00000+0  00000+0 0  9990
2 32276  65.9323 338.9181 0007891 323.6757  82.7015  2.13103270130557
COSMOS 2434 (721)       
1 32393U 07065A   24216.52559382  .00000053  00000+0  00000+0 0  9998
2 32393  64.3208 214.9700 0000317 304.1510 240.3811  2.13101390129228
COSMOS 2436 (723)       
1 32395U 07065C   24216.29860213  .00000056  00000+0  00000+0 0  9995
2 32395  64.3301 215.0425 0016122 351.9095 153.6485  2.13102833129179
COSMOS 2456 (730)       
1 36111U 09070A   24216.35796944 -.00000010  00000+0  00000+0 0  9990
2 36111  64.6322  94.3381 0003055 332.9341 237.0057  2.13099178113877
COSMOS 2457 (733)       
1 36112U 09070B   24216.14910404 -.00000012  00000+0  00000+0 0  9999
2 36112  64.6167  94.2028 0004548 143.3151  39.8094  2.13101357113910
COSMOS 2460 (732)       
1 36402U 10007C   24216.08551105 -.00000094  00000+0  00000+0 0  9995
2 36402  65.7728 337.4830 0001457 149.0724 337.7535  2.13106334112172
COSMOS 2476 (744)       
1 37867U 11064A   24216.34276478 -.00000010  00000+0  00000+0 0  9999
2 37867  64.9045  95.9913 0021756 235.1567 235.3316  2.13101704 99210
COSMOS 2477 (745)       
1 37868U 11064B   24216.89419944 -.00000006  00000+0  00000+0 0  9992
2 37868  64.9114  96.0453 0018952 235.8433 116.0204  2.13103205 99211
COSMOS 2475 (743)       
1 37869U 11064C   24216.12600522 -.00000012  00000+0  00000+0 0  9990
2 37869  64.9186  96.0868 0023683 252.0996 188.6320  2.13102025 99216
COSMOS 2485 (747)       
1 39155U 13019A   24216.14069759 -.00000012  00000+0  00000+0 0  9995
2 39155  65.0618  96.5923 0022128 230.9285 128.9491  2.13101955 87724
COSMOS 2492 (754)       
1 39620U 14012A   24216.09592157 -.00000094  00000+0  00000+0 0  9993
2 39620  65.6543 337.0530 0010896 318.9612  40.9596  2.13103221 80686
COSMOS 2500 (755)       
1 40001U 14032A   24216.74392729 -.00000092  00000+0  00000+0 0  9993
2 40001  65.5911 336.8326 0007775 193.5363 166.4478  2.13105990 78912
COSMOS 2501 (702K)      
1 40315U 14075A   24216.52835003  .00000051  00000+0  00000+0 0  9995
2 40315  63.6229 214.0296 0021053 211.6329 148.2559  2.13101473 75303
COSMOS 2514 (751)       
1 41330U 16008A   24216.51095184 -.00000092  00000+0  00000+0 0  9994
2 41330  65.3857 336.3379 0011481 203.8481 156.1038  2.13102641 66075
COSMOS 2522 (752)       
1 42939U 17055A   24216.35111600  .00000055  00000+0  00000+0 0  9995
2 42939  64.0839 215.1536 0010401 241.8037 118.1101  2.13101963 53426
COSMOS 2527 (756)       
1 43508U 18053A   24215.37192559 -.00000019  00000+0  00000+0 0  9991
2 43508  65.2213  96.7799 0007188 226.9586 133.0519  2.13102344 47700
COSMOS 2529 (757)       
1 43687U 18086A   24216.40917009  .00000055  00000+0  00000+0 0  9994
2 43687  64.2995 215.6769 0011823 259.5396 100.3469  2.13102066 44737
COSMOS 2534 (758)       
1 44299U 19030A   24216.37327755  .00000055  00000+0  00000+0 0  9993
2 44299  64.3727 215.6361 0013658 278.4255 188.1685  2.13102205 40376
COSMOS 2544 (759)       
1 44850U 19088A   24216.25452370 -.00000010  00000+0  00000+0 0  9990
2 44850  65.2082  96.5863 0012036 255.0971 104.8451  2.13102155 36163
COSMOS 2545 (760)       
1 45358U 20018A   24216.45132921 -.00000093  00000+0  00000+0 0  9999
2 45358  64.7253 336.3123 0009395 234.7771 125.1401  2.13102624 34116
COSMOS 2547 (705K)      
1 46805U 20075A   24216.16904238  .00000058  00000+0  00000+0 0  9996
2 46805  64.6015 215.2984 0009021 242.0303 117.8988  2.13102974 29354
COSMOS 2557 (706K)      
1 52984U 22075A   24216.33439038 -.00000095  00000+0  00000+0 0  9995
2 52984  64.6532 338.4420 0011363 275.1932  84.6799  2.13102332 16156
COSMOS 2559 (707K)      
1 54031U 22130A   24216.74669490 -.00000094  00000+0  00000+0 0  9993
2 54031  64.6250 338.5436 0006924 214.7324 145.2261  2.13101635 14147
COSMOS 2564 (761)       
1 54377U 22161A   24216.46818900  .00000055  00000+0  00000+0 0  9997
2 54377  64.7428 215.4015 0011589 225.7642 134.1598  2.13102153 13080
COSMOS 2569 (703K)      
1 57517U 23114A   24216.01600689 -.00000013  00000+0  00000+0 0  9994
2 57517  64.9357  95.7267 0009839 297.8256  62.1499  2.13103799  7705
